[{"OBJECT_NAME":"STARLINK-36210","OBJECT_ID":"2025-303M","EPOCH":"2026-03-09T00:50:21.020064","MEAN_MOTION":15.27594454,"ECCENTRICITY":0.00022379,"INCLINATION":43.0036,"RA_OF_ASC_NODE":314.5291,"ARG_OF_PERICENTER":258.7936,"MEAN_ANOMALY":101.2664,"EPHEMERIS_TYPE":0,"CLASSIFICATION_TYPE":"U","NORAD_CAT_ID":67174,"ELEMENT_SET_NO":999,"REV_AT_EPOCH":1263,"BSTAR":0.0013034625,"MEAN_MOTION_DOT":0.00035797,"MEAN_MOTION_DDOT":0},{"OBJECT_NAME":"TITAN 3C TRANSTAGE DEB","OBJECT_ID":"1965-082PT","EPOCH":"2026-03-09T13:23:41.116128","MEAN_MOTION":15.28908269,"ECCENTRICITY":0.00104371,"INCLINATION":32.0266,"RA_OF_ASC_NODE":255.1391,"ARG_OF_PERICENTER":172.8339,"MEAN_ANOMALY":187.2474,"EPHEMERIS_TYPE":0,"CLASSIFICATION_TYPE":"U","NORAD_CAT_ID":3462,"ELEMENT_SET_NO":999,"REV_AT_EPOCH":24824,"BSTAR":0.0004444037,"MEAN_MOTION_DOT":0.00012939,"MEAN_MOTION_DDOT":0}]
